CCSDS_OMM_VERS = 2.0
CREATION_DATE  = 
ORIGINATOR     = 

OBJECT_NAME    = STARLINK-36711
OBJECT_ID      = 2026-041A
CENTER_NAME    = EARTH
REF_FRAME      = TEME
TIME_SYSTEM    = UTC
MEAN_ELEMENT_THEORY = SGP/SGP4

EPOCH          = 2026-03-25T04:29:30.274944
MEAN_MOTION    = 15.75306082
ECCENTRICITY   = .00005886
INCLINATION    = 53.1584
RA_OF_ASC_NODE = 344.9087
ARG_OF_PERICENTER = 120.6848
MEAN_ANOMALY   = 239.4230

EPHEMERIS_TYPE = 0
CLASSIFICATION_TYPE = U
NORAD_CAT_ID   = 68040
ELEMENT_SET_NO = 999
REV_AT_EPOCH   = 366
BSTAR          = .13119804E-2
MEAN_MOTION_DOT = .20605E-2
MEAN_MOTION_DDOT = 0

CCSDS_OMM_VERS = 2.0
CREATION_DATE  = 
ORIGINATOR     = 

OBJECT_NAME    = STARLINK-36825
OBJECT_ID      = 2026-041B
CENTER_NAME    = EARTH
REF_FRAME      = TEME
TIME_SYSTEM    = UTC
MEAN_ELEMENT_THEORY = SGP/SGP4

EPOCH          = 2026-03-25T05:04:55.811712
MEAN_MOTION    = 15.81036222
ECCENTRICITY   = .00012573
INCLINATION    = 53.1587
RA_OF_ASC_NODE = 344.3340
ARG_OF_PERICENTER = 66.6081
MEAN_ANOMALY   = 293.5074

EPHEMERIS_TYPE = 0
CLASSIFICATION_TYPE = U
NORAD_CAT_ID   = 68041
ELEMENT_SET_NO = 999
REV_AT_EPOCH   = 367
BSTAR          = .19398933E-2
MEAN_MOTION_DOT = .403646E-2
MEAN_MOTION_DDOT = 0

CCSDS_OMM_VERS = 2.0
CREATION_DATE  = 
ORIGINATOR     = 

OBJECT_NAME    = STARLINK-36925
OBJECT_ID      = 2026-041C
CENTER_NAME    = EARTH
REF_FRAME      = TEME
TIME_SYSTEM    = UTC
MEAN_ELEMENT_THEORY = SGP/SGP4

EPOCH          = 2026-03-25T06:01:20.581824
MEAN_MOTION    = 15.75294089
ECCENTRICITY   = .0000923
INCLINATION    = 53.1589
RA_OF_ASC_NODE = 344.5952
ARG_OF_PERICENTER = 52.0413
MEAN_ANOMALY   = 308.0690

EPHEMERIS_TYPE = 0
CLASSIFICATION_TYPE = U
NORAD_CAT_ID   = 68042
ELEMENT_SET_NO = 999
REV_AT_EPOCH   = 367
BSTAR          = .11156616E-2
MEAN_MOTION_DOT = .174366E-2
MEAN_MOTION_DDOT = 0

CCSDS_OMM_VERS = 2.0
CREATION_DATE  = 
ORIGINATOR     = 

OBJECT_NAME    = STARLINK-36902
OBJECT_ID      = 2026-041D
CENTER_NAME    = EARTH
REF_FRAME      = TEME
TIME_SYSTEM    = UTC
MEAN_ELEMENT_THEORY = SGP/SGP4

EPOCH          = 2026-03-24T22:59:42.703296
MEAN_MOTION    = 15.80889848
ECCENTRICITY   = .00018148
INCLINATION    = 53.1584
RA_OF_ASC_NODE = 345.5979
ARG_OF_PERICENTER = 15.5493
MEAN_ANOMALY   = 344.5585

EPHEMERIS_TYPE = 0
CLASSIFICATION_TYPE = U
NORAD_CAT_ID   = 68043
ELEMENT_SET_NO = 999
REV_AT_EPOCH   = 363
BSTAR          = .1249351E-2
MEAN_MOTION_DOT = .253454E-2
MEAN_MOTION_DDOT = 0

CCSDS_OMM_VERS = 2.0
CREATION_DATE  = 
ORIGINATOR     = 

OBJECT_NAME    = STARLINK-36966
OBJECT_ID      = 2026-041E
CENTER_NAME    = EARTH
REF_FRAME      = TEME
TIME_SYSTEM    = UTC
MEAN_ELEMENT_THEORY = SGP/SGP4

EPOCH          = 2026-03-25T10:28:54.489792
MEAN_MOTION    = 15.75343546
ECCENTRICITY   = .00028184
INCLINATION    = 53.1592
RA_OF_ASC_NODE = 343.6186
ARG_OF_PERICENTER = 82.0609
MEAN_ANOMALY   = 278.0731

EPHEMERIS_TYPE = 0
CLASSIFICATION_TYPE = U
NORAD_CAT_ID   = 68044
ELEMENT_SET_NO = 999
REV_AT_EPOCH   = 370
BSTAR          = .2222611E-2
MEAN_MOTION_DOT = .356439E-2
MEAN_MOTION_DDOT = 0

CCSDS_OMM_VERS = 2.0
CREATION_DATE  = 
ORIGINATOR     = 

OBJECT_NAME    = STARLINK-36864
OBJECT_ID      = 2026-041F
CENTER_NAME    = EARTH
REF_FRAME      = TEME
TIME_SYSTEM    = UTC
MEAN_ELEMENT_THEORY = SGP/SGP4

EPOCH          = 2026-03-25T10:28:25.287456
MEAN_MOTION    = 15.75315660
ECCENTRICITY   = .00011099
INCLINATION    = 53.1595
RA_OF_ASC_NODE = 343.6168
ARG_OF_PERICENTER = 49.6142
MEAN_ANOMALY   = 310.4976

EPHEMERIS_TYPE = 0
CLASSIFICATION_TYPE = U
NORAD_CAT_ID   = 68045
ELEMENT_SET_NO = 999
REV_AT_EPOCH   = 370
BSTAR          = .16412492E-2
MEAN_MOTION_DOT = .259688E-2
MEAN_MOTION_DDOT = 0

CCSDS_OMM_VERS = 2.0
CREATION_DATE  = 
ORIGINATOR     = 

OBJECT_NAME    = STARLINK-36321
OBJECT_ID      = 2026-041G
CENTER_NAME    = EARTH
REF_FRAME      = TEME
TIME_SYSTEM    = UTC
MEAN_ELEMENT_THEORY = SGP/SGP4

EPOCH          = 2026-03-25T14:00:01.999872
MEAN_MOTION    = 15.75212231
ECCENTRICITY   = .00009018
INCLINATION    = 53.1582
RA_OF_ASC_NODE = 342.5693
ARG_OF_PERICENTER = 104.3264
MEAN_ANOMALY   = 164.1425

EPHEMERIS_TYPE = 0
CLASSIFICATION_TYPE = U
NORAD_CAT_ID   = 68046
ELEMENT_SET_NO = 999
REV_AT_EPOCH   = 493
BSTAR          = .32964154E-3
MEAN_MOTION_DOT = .50131E-3
MEAN_MOTION_DDOT = 0

CCSDS_OMM_VERS = 2.0
CREATION_DATE  = 
ORIGINATOR     = 

OBJECT_NAME    = STARLINK-36181
OBJECT_ID      = 2026-041H
CENTER_NAME    = EARTH
REF_FRAME      = TEME
TIME_SYSTEM    = UTC
MEAN_ELEMENT_THEORY = SGP/SGP4

EPOCH          = 2026-03-25T03:29:35.000736
MEAN_MOTION    = 15.80971605
ECCENTRICITY   = .00011614
INCLINATION    = 53.1586
RA_OF_ASC_NODE = 344.6316
ARG_OF_PERICENTER = 31.0268
MEAN_ANOMALY   = 329.0823

EPHEMERIS_TYPE = 0
CLASSIFICATION_TYPE = U
NORAD_CAT_ID   = 68047
ELEMENT_SET_NO = 999
REV_AT_EPOCH   = 366
BSTAR          = .182914E-2
MEAN_MOTION_DOT = .378303E-2
MEAN_MOTION_DDOT = 0

CCSDS_OMM_VERS = 2.0
CREATION_DATE  = 
ORIGINATOR     = 

OBJECT_NAME    = STARLINK-36318
OBJECT_ID      = 2026-041J
CENTER_NAME    = EARTH
REF_FRAME      = TEME
TIME_SYSTEM    = UTC
MEAN_ELEMENT_THEORY = SGP/SGP4

EPOCH          = 2026-03-25T10:22:22.385856
MEAN_MOTION    = 15.75315226
ECCENTRICITY   = .00031577
INCLINATION    = 53.1604
RA_OF_ASC_NODE = 343.5887
ARG_OF_PERICENTER = 66.4490
MEAN_ANOMALY   = 293.6862

EPHEMERIS_TYPE = 0
CLASSIFICATION_TYPE = U
NORAD_CAT_ID   = 68048
ELEMENT_SET_NO = 999
REV_AT_EPOCH   = 370
BSTAR          = .18397386E-2
MEAN_MOTION_DOT = .292325E-2
MEAN_MOTION_DDOT = 0

CCSDS_OMM_VERS = 2.0
CREATION_DATE  = 
ORIGINATOR     = 

OBJECT_NAME    = STARLINK-36885
OBJECT_ID      = 2026-041K
CENTER_NAME    = EARTH
REF_FRAME      = TEME
TIME_SYSTEM    = UTC
MEAN_ELEMENT_THEORY = SGP/SGP4

EPOCH          = 2026-03-25T05:47:47.016960
MEAN_MOTION    = 15.75407464
ECCENTRICITY   = .00003064
INCLINATION    = 53.1602
RA_OF_ASC_NODE = 344.5316
ARG_OF_PERICENTER = 123.4522
MEAN_ANOMALY   = 236.6528

EPHEMERIS_TYPE = 0
CLASSIFICATION_TYPE = U
NORAD_CAT_ID   = 68049
ELEMENT_SET_NO = 999
REV_AT_EPOCH   = 367
BSTAR          = .2578845E-2
MEAN_MOTION_DOT = .41794E-2
MEAN_MOTION_DDOT = 0

CCSDS_OMM_VERS = 2.0
CREATION_DATE  = 
ORIGINATOR     = 

OBJECT_NAME    = STARLINK-36945
OBJECT_ID      = 2026-041L
CENTER_NAME    = EARTH
REF_FRAME      = TEME
TIME_SYSTEM    = UTC
MEAN_ELEMENT_THEORY = SGP/SGP4

EPOCH          = 2026-03-25T14:00:01.999872
MEAN_MOTION    = 15.77526197
ECCENTRICITY   = .00007093
INCLINATION    = 53.1593
RA_OF_ASC_NODE = 342.4189
ARG_OF_PERICENTER = 109.1194
MEAN_ANOMALY   = 232.3686

EPHEMERIS_TYPE = 0
CLASSIFICATION_TYPE = U
NORAD_CAT_ID   = 68050
ELEMENT_SET_NO = 999
REV_AT_EPOCH   = 493
BSTAR          = -.11638363E-1
MEAN_MOTION_DOT = -.1741032E-1
MEAN_MOTION_DDOT = 0

CCSDS_OMM_VERS = 2.0
CREATION_DATE  = 
ORIGINATOR     = 

OBJECT_NAME    = STARLINK-35911
OBJECT_ID      = 2026-041M
CENTER_NAME    = EARTH
REF_FRAME      = TEME
TIME_SYSTEM    = UTC
MEAN_ELEMENT_THEORY = SGP/SGP4

EPOCH          = 2026-03-25T00:22:05.838240
MEAN_MOTION    = 15.80964461
ECCENTRICITY   = .00012968
INCLINATION    = 53.1590
RA_OF_ASC_NODE = 345.2396
ARG_OF_PERICENTER = 81.7264
MEAN_ANOMALY   = 278.3905

EPHEMERIS_TYPE = 0
CLASSIFICATION_TYPE = U
NORAD_CAT_ID   = 68051
ELEMENT_SET_NO = 999
REV_AT_EPOCH   = 364
BSTAR          = .10795879E-2
MEAN_MOTION_DOT = .218782E-2
MEAN_MOTION_DDOT = 0

