STARLINK-36711          
1 68040U 26041A   26084.18715596  .00206050  00000+0  13120-2 0  9994
2 68040  53.1584 344.9087 0000588 120.6848 239.4230 15.75306082  3666
STARLINK-36825          
1 68041U 26041B   26084.21175708  .00403646  00000+0  19399-2 0  9998
2 68041  53.1587 344.3340 0001257  66.6081 293.5074 15.81036222  3679
STARLINK-36925          
1 68042U 26041C   26084.25093266  .00174366  00000+0  11157-2 0  9999
2 68042  53.1589 344.5952 0000923  52.0413 308.0690 15.75294089  3676
STARLINK-36902          
1 68043U 26041D   26083.95813314  .00253454  00000+0  12494-2 0  9991
2 68043  53.1584 345.5979 0001814  15.5493 344.5585 15.80889848  3637
STARLINK-36966          
1 68044U 26041E   26084.43674178  .00356439  00000+0  22226-2 0  9990
2 68044  53.1592 343.6186 0002818  82.0609 278.0731 15.75343546  3705
STARLINK-36864          
1 68045U 26041F   26084.43640379  .00259688  00000+0  16412-2 0  9995
2 68045  53.1595 343.6168 0001109  49.6142 310.4976 15.75315660  3700
STARLINK-36321          
1 68046U 26041G   26084.58335648  .00050131  00000+0  32964-3 0  9995
2 68046  53.1582 342.5693 0000901 104.3264 164.1425 15.75212231  4930
STARLINK-36181          
1 68047U 26041H   26084.14554399  .00378303  00000+0  18291-2 0  9994
2 68047  53.1586 344.6316 0001161  31.0268 329.0823 15.80971605  3665
STARLINK-36318          
1 68048U 26041J   26084.43220354  .00292325  00000+0  18397-2 0  9994
2 68048  53.1604 343.5887 0003157  66.4490 293.6862 15.75315226  3703
STARLINK-36885          
1 68049U 26041K   26084.24151640  .00417940  00000+0  25788-2 0  9999
2 68049  53.1602 344.5316 0000306 123.4522 236.6528 15.75407464  3671
STARLINK-36945          
1 68050U 26041L   26084.58335648 -.01741032  00000+0 -11638-1 0  9993
2 68050  53.1593 342.4189 0000709 109.1194 232.3686 15.77526197  4935
STARLINK-35911          
1 68051U 26041M   26084.01534535  .00218782  00000+0  10796-2 0  9991
2 68051  53.1590 345.2396 0001296  81.7264 278.3905 15.80964461  3644
